BEIDOU-3S IGSO-1S       
1 40549U 15019A   26183.80025122 -.00000190  00000+0  00000+0 0  9997
2 40549  49.1798 295.2769 0076860 219.1125 144.2493  1.00680073 41232
NAVSTAR 74 (USA 262)    
1 40730U 15033A   26199.63272004 -.00000034  00000+0  00000+0 0  9993
2 40730  53.9587 265.7885 0115411  30.2892 330.4453  2.00554643 80628
BEIDOU-3S M2S           
1 40748U 15037A   26199.46648524 -.00000089  00000+0  00000+0 0  9991
2 40748  54.8412 300.9692 0009499 256.6146 103.3161  1.86231856 74702
BEIDOU-3S M1S           
1 40749U 15037B   26199.13316707 -.00000087  00000+0  00000+0 0  9999
2 40749  54.8378 300.9676 0002669  62.8642 297.1994  1.86254870 74703
GSAT0206 (GALILEO 10)   
1 40890U 15045B   26197.78640921  .00000048  00000+0  00000+0 0  9998
2 40890  54.9385 220.7865 0002263 327.7315  32.3020  1.70473544 67545
BEIDOU-3S IGSO-2S       
1 40938U 15053A   26200.13965941 -.00000108  00000+0  00000+0 0  9994
2 40938  49.1706 258.3992 0066247 193.4530 348.4251  1.00252379 39672
NAVSTAR 75 (USA 265)    
1 41019U 15062A   26200.18595544 -.00000087  00000+0  00000+0 0  9994
2 41019  56.9811  29.5794 0113018 230.8613 128.1627  2.00567035 78471
GSAT-15                 
1 41028U 15065A   26200.56755446 -.00000262  00000+0  00000+0 0  9993
2 41028   0.1062 263.6992 0003530 176.7800 154.6986  1.00272131 39124
GSAT0209 (GALILEO 12)   
1 41174U 15079A   26197.95479091 -.00000027  00000+0  00000+0 0  9996
2 41174  55.8441 100.4450 0004723 356.6958   3.3383  1.70473553 65284
GSAT0208 (GALILEO 11)   
1 41175U 15079B   26199.93486978 -.00000034  00000+0  00000+0 0  9997
2 41175  55.8429 100.3876 0004216 351.7596   8.2727  1.70473492 65731
IRNSS-1E                
1 41241U 16003A   26199.60095318 -.00000316  00000+0  00000+0 0  9990
2 41241  33.2996  59.2938 0019245 176.3205  28.9297  1.00276269 38390
NAVSTAR 76 (USA 266)    
1 41328U 16007A   26200.27711236 -.00000045  00000+0  00000+0 0  9999
2 41328  55.5436  88.1869 0096641 247.5846 111.4417  2.00575263 76484
COSMOS 2514 [GLONASS-M] 
1 41330U 16008A   26199.72561542 -.00000074  00000+0  00000+0 0  9995
2 41330  65.0007 311.9242 0012428 201.6103 158.3594  2.13102626 81291
BEIDOU-2 IGSO-6         
1 41434U 16021A   26177.11016981 -.00000145  00000+0  00000+0 0  9995
2 41434  60.2385  37.9495 0057558 231.0163 137.2672  1.00258926 37578
IRNSS-1G                
1 41469U 16027A   26200.57474781 -.00000341  00000+0  00000+0 0  9990
2 41469   5.2733  96.7251 0005932  12.6650 164.5318  1.00268743 37509
GSAT0211 (GALILEO 14)   
1 41549U 16030A   26197.71212509  .00000049  00000+0  00000+0 0  9996
2 41549  55.0897 220.8821 0003438 318.8981  41.1241  1.70473723 63172
GSAT0210 (GALILEO 13)   
1 41550U 16030B   26197.96936534  .00000048  00000+0  00000+0 0  9995
2 41550  55.0882 220.8733 0004721 246.2569 113.7400  1.70473885 63174
BEIDOU-2 G7             
1 41586U 16037A   26200.59546922 -.00000358  00000+0  00000+0 0  9998
2 41586   1.7989  69.5452 0005974   0.4436 192.3184  1.00271361  7212
EUTELSAT 117 WEST B     
1 41589U 16038B   26200.45391889 -.00000016  00000+0  00000+0 0  9998
2 41589   0.0069 154.1524 0000154  21.5477 167.9652  1.00270716 36988
GSAT0207 (GALILEO 15)   
1 41859U 16069A   26199.42117586 -.00000032  00000+0  00000+0 0  9994
2 41859  55.5165 100.2217 0004595 338.4837  21.5364  1.70473613 59937
GSAT0212 (GALILEO 16)   
1 41860U 16069B   26195.75505462 -.00000028  00000+0  00000+0 0  9997
2 41860  55.5126 100.3182 0004383  15.0007 345.0382  1.70473579 60128
GSAT0213 (GALILEO 17)   
1 41861U 16069C   26194.36243565 -.00000031  00000+0  00000+0 0  9991
2 41861  55.5134 100.3648 0004126 318.6741  41.3115  1.70474037 59967
GSAT0214 (GALILEO 18)   
1 41862U 16069D   26195.09530723 -.00000030  00000+0  00000+0 0  9997
2 41862  55.5122 100.3371 0003296 333.1197  26.8847  1.70473685 60108
SES-15                  
1 42709U 17026A   26200.45217457  .00000055  00000+0  00000+0 0  9991
2 42709   0.0293 316.2493 0000814 174.8215 199.8057  1.00276569  7751
QZS-2 (MICHIBIKI-2)     
1 42738U 17028A   26200.43631451 -.00000145  00000+0  00000+0 0  9998
2 42738  39.3809 242.6784 0756999 269.6501  84.4438  1.00275667  7951
QZS-3 (MICHIBIKI-3)     
1 42917U 17048A   26200.57422781 -.00000352  00000+0  00000+0 0  9998
2 42917   0.0602 208.8783 0002717 277.7897 144.4480  1.00270418 32589
COSMOS 2522 [GLONASS-M] 
1 42939U 17055A   26199.09397106  .00000060  00000+0  00000+0 0  9991
2 42939  64.0809 190.8323 0010876 240.6480 119.2397  2.13101776 68631
QZS-4 (MICHIBIKI-4)     
1 42965U 17062A   26200.48617281 -.00000359  00000+0  00000+0 0  9995
2 42965  40.0890 343.0732 0747049 268.6591 359.8851  1.00289639 32124
BEIDOU-3 M1             
1 43001U 17069A   26196.05478514 -.00000040  00000+0  00000+0 0  9992
2 43001  56.7163  62.1672 0009267 328.5335  31.4861  1.86230827 59122
BEIDOU-3 M2             
1 43002U 17069B   26198.14155350 -.00000054  00000+0  00000+0 0  9990
2 43002  56.7180  62.1334 0005844  63.7447 296.3868  1.86231037 59152
GSAT0215 (GALILEO 19)   
1 43055U 17079A   26200.27746981  .00000052  00000+0  00000+0 0  9990
2 43055  55.0670 220.6230 0003742 269.1143  90.8812  1.70474412 53533
